[{"OBJECT_NAME":"STARLINK-31289","OBJECT_ID":"2024-044X","EPOCH":"2026-03-09T19:26:55.407264","MEAN_MOTION":15.27560669,"ECCENTRICITY":0.00032142,"INCLINATION":43.0075,"RA_OF_ASC_NODE":106.3738,"ARG_OF_PERICENTER":275.0621,"MEAN_ANOMALY":84.9864,"EPHEMERIS_TYPE":0,"CLASSIFICATION_TYPE":"U","NORAD_CAT_ID":59173,"ELEMENT_SET_NO":999,"REV_AT_EPOCH":11361,"BSTAR":1.3801012e-5,"MEAN_MOTION_DOT":1.17e-6,"MEAN_MOTION_DDOT":0},{"OBJECT_NAME":"JINJUSAT-1B","OBJECT_ID":"2025-052A","EPOCH":"2026-03-09T15:55:38.242848","MEAN_MOTION":15.30194857,"ECCENTRICITY":0.00055504,"INCLINATION":97.4113,"RA_OF_ASC_NODE":325.4613,"ARG_OF_PERICENTER":82.193,"MEAN_ANOMALY":277.9941,"EPHEMERIS_TYPE":0,"CLASSIFICATION_TYPE":"U","NORAD_CAT_ID":63210,"ELEMENT_SET_NO":999,"REV_AT_EPOCH":5486,"BSTAR":0.00068430401,"MEAN_MOTION_DOT":0.00019955,"MEAN_MOTION_DDOT":0}]
